{"type": "FeatureCollection", "features": [ {"type": "Feature", "properties": {"norad_id": 37967, "name": "COSMOS 2251 DEB", "group": "cosmos-2251-debris", "lat": -74.0040548502086, "lon": 42.097087894018394, "alt_km": 655.9226098170566, "timestamp": "2025-12-15T22:44:29.328292+00:00", "meta": {"OBJECT_NAME": "COSMOS 2251 DEB", "OBJECT_ID": "1993-036BPS", "EPOCH": "2025-12-14T02:08:56.149728", "MEAN_MOTION": 14.40535901, "ECCENTRICITY": 0.0150953, "INCLINATION": 74.0149, "RA_OF_ASC_NODE": 134.8827, "ARG_OF_PERICENTER": 273.3814, "MEAN_ANOMALY": 85.0084, "EPHEMERIS_TYPE": 0, "CLASSIFICATION_TYPE": "U", "NORAD_CAT_ID": 37967, "ELEMENT_SET_NO": 999, "REV_AT_EPOCH": 64755, "BSTAR": 0.0018183092, "MEAN_MOTION_DOT": 6.602e-05, "MEAN_MOTION_DDOT": 0}, "tle": {"line1": "1 37967U 93036BPS 25348.08953877  .00006602  00000+0  18183-2 0  9998", "line2": "2 37967  74.0149 134.8827 0150953 273.3814  85.0084 14.40535901647557"}}, "geometry": {"type": "Point", "coordinates": [42.097087894018394, -74.0040548502086]}}, {"type": "Feature", "properties": {"norad_id": 37968, "name": "COSMOS 2251 DEB", "group": "cosmos-2251-debris", "lat": 33.99874852853262, "lon": -84.22249033594578, "alt_km": 508.5082818174669, "timestamp": "2025-12-15T22:44:29.328303+00:00", "meta": {"OBJECT_NAME": "COSMOS 2251 DEB", "OBJECT_ID": "1993-036BPT", "EPOCH": "2025-12-13T01:47:19.904352", "MEAN_MOTION": 15.00631404, "ECCENTRICITY": 0.00804189, "INCLINATION": 74.0008, "RA_OF_ASC_NODE": 270.4748, "ARG_OF_PERICENTER": 26.0645, "MEAN_ANOMALY": 334.4556, "EPHEMERIS_TYPE": 0, "CLASSIFICATION_TYPE": "U", "NORAD_CAT_ID": 37968, "ELEMENT_SET_NO": 999, "REV_AT_EPOCH": 60224, "BSTAR": 0.001541289, "MEAN_MOTION_DOT": 0.00020898, "MEAN_MOTION_DDOT": 0}, "tle": {"line1": "1 37968U 93036BPT 25347.07453593  .00020898  00000+0  15413-2 0  9993", "line2": "2 37968  74.0008 270.4748 0080418  26.0645 334.4556 15.00631404602248"}}, "geometry": {"type": "Point", "coordinates": [-84.22249033594578, 33.99874852853262]}}, {"type": "Feature", "properties": {"norad_id": 37971, "name": "COSMOS 2251 DEB", "group": "cosmos-2251-debris", "lat": 66.41796904080675, "lon": 76.83055555941748, "alt_km": 732.3081563807027, "timestamp": "2025-12-15T22:44:29.328313+00:00", "meta": {"OBJECT_NAME": "COSMOS 2251 DEB", "OBJECT_ID": "1993-036BPW", "EPOCH": "2025-12-14T09:56:36.830688", "MEAN_MOTION": 14.48680607, "ECCENTRICITY": 0.00670182, "INCLINATION": 73.994, "RA_OF_ASC_NODE": 38.5941, "ARG_OF_PERICENTER": 177.3148, "MEAN_ANOMALY": 182.8385, "EPHEMERIS_TYPE": 0, "CLASSIFICATION_TYPE": "U", "NORAD_CAT_ID": 37971, "ELEMENT_SET_NO": 999, "REV_AT_EPOCH": 60702, "BSTAR": 0.0021144206, "MEAN_MOTION_DOT": 8.176e-05, "MEAN_MOTION_DDOT": 0}, "tle": {"line1": "1 37971U 93036BPW 25348.41431517  .00008176  00000+0  21144-2 0  9991", "line2": "2 37971  73.9940  38.5941 0067018 177.3148 182.8385 14.48680607607028"}}, "geometry": {"type": "Point", "coordinates": [76.83055555941748, 66.41796904080675]}}, {"type": "Feature", "properties": {"norad_id": 37975, "name": "COSMOS 2251 DEB", "group": "cosmos-2251-debris", "lat": -72.35801197036963, "lon": -106.6557704525402, "alt_km": 589.2005851910599, "timestamp": "2025-12-15T22:44:29.328324+00:00", "meta": {"OBJECT_NAME": "COSMOS 2251 DEB", "OBJECT_ID": "1993-036BQA", "EPOCH": "2025-12-13T15:48:30.179232", "MEAN_MOTION": 14.76130148, "ECCENTRICITY": 0.00956338, "INCLINATION": 74.0029, "RA_OF_ASC_NODE": 322.2658, "ARG_OF_PERICENTER": 311.4373, "MEAN_ANOMALY": 47.8613, "EPHEMERIS_TYPE": 0, "CLASSIFICATION_TYPE": "U", "NORAD_CAT_ID": 37975, "ELEMENT_SET_NO": 999, "REV_AT_EPOCH": 69759, "BSTAR": 0.0039912819, "MEAN_MOTION_DOT": 0.00029805, "MEAN_MOTION_DDOT": 0}, "tle": {"line1": "1 37975U 93036BQA 25347.65868263  .00029805  00000+0  39913-2 0  9997", "line2": "2 37975  74.0029 322.2658 0095633 311.4373  47.8613 14.76130148697591"}}, "geometry": {"type": "Point", "coordinates": [-106.6557704525402, -72.35801197036963]}}, {"type": "Feature", "properties": {"norad_id": 37978, "name": "COSMOS 2251 DEB", "group": "cosmos-2251-debris", "lat": -11.276658247692305, "lon": 78.40045329309132, "alt_km": 289.8789545280897, "timestamp": "2025-12-15T22:44:29.328334+00:00", "meta": {"OBJECT_NAME": "COSMOS 2251 DEB", "OBJECT_ID": "1993-036BQD", "EPOCH": "2025-11-19T05:08:53.100672", "MEAN_MOTION": 15.61137081, "ECCENTRICITY": 0.00148985, "INCLINATION": 74.0238, "RA_OF_ASC_NODE": 142.2198, "ARG_OF_PERICENTER": 140.9849, "MEAN_ANOMALY": 219.2448, "EPHEMERIS_TYPE": 0, "CLASSIFICATION_TYPE": "U", "NORAD_CAT_ID": 37978, "ELEMENT_SET_NO": 999, "REV_AT_EPOCH": 8032, "BSTAR": 0.0043958825, "MEAN_MOTION_DOT": 0.0039117, "MEAN_MOTION_DDOT": 0}, "tle": {"line1": "1 37978U 93036BQD 25323.21450348  .00391170  00000+0  43959-2 0  9999", "line2": "2 37978  74.0238 142.2198 0014898 140.9849 219.2448 15.61137081 80328"}}, "geometry": {"type": "Point", "coordinates": [78.40045329309132, -11.276658247692305]}}, {"type": "Feature", "properties": {"norad_id": 37985, "name": "COSMOS 2251 DEB", "group": "cosmos-2251-debris", "lat": -52.586537524025665, "lon": 101.84193853794608, "alt_km": 792.4449716407262, "timestamp": "2025-12-15T22:44:29.328344+00:00", "meta": {"OBJECT_NAME": "COSMOS 2251 DEB", "OBJECT_ID": "1993-036BQL", "EPOCH": "2025-12-14T12:11:43.486080", "MEAN_MOTION": 14.35483597, "ECCENTRICITY": 0.00208601, "INCLINATION": 74.0254, "RA_OF_ASC_NODE": 262.4907, "ARG_OF_PERICENTER": 24.7118, "MEAN_ANOMALY": 335.5029, "EPHEMERIS_TYPE": 0, "CLASSIFICATION_TYPE": "U", "NORAD_CAT_ID": 37985, "ELEMENT_SET_NO": 999, "REV_AT_EPOCH": 64942, "BSTAR": 6.1585039e-05, "MEAN_MOTION_DOT": 1.51e-06, "MEAN_MOTION_DDOT": 0}, "tle": {"line1": "1 37985U 93036BQL 25348.50814220  .00000151  00000+0  61585-4 0  9992", "line2": "2 37985  74.0254 262.4907 0020860  24.7118 335.5029 14.35483597649426"}}, "geometry": {"type": "Point", "coordinates": [101.84193853794608, -52.586537524025665]}}, {"type": "Feature", "properties": {"norad_id": 37988, "name": "COSMOS 2251 DEB", "group": "cosmos-2251-debris", "lat": -72.2764408768743, "lon": -98.78629648218234, "alt_km": 711.0280479979137, "timestamp": "2025-12-15T22:44:29.328354+00:00", "meta": {"OBJECT_NAME": "COSMOS 2251 DEB", "OBJECT_ID": "1993-036BQP", "EPOCH": "2025-12-15T01:56:17.446272", "MEAN_MOTION": 14.68888628, "ECCENTRICITY": 0.00634048, "INCLINATION": 74.0635, "RA_OF_ASC_NODE": 19.4997, "ARG_OF_PERICENTER": 56.3451, "MEAN_ANOMALY": 304.3745, "EPHEMERIS_TYPE": 0, "CLASSIFICATION_TYPE": "U", "NORAD_CAT_ID": 37988, "ELEMENT_SET_NO": 999, "REV_AT_EPOCH": 23430, "BSTAR": 0.00052756318, "MEAN_MOTION_DOT": 3.15e-05, "MEAN_MOTION_DDOT": 0}, "tle": {"line1": "1 37988U 93036BQP 25349.08075748  .00003150  00000+0  52756-3 0  9994", "line2": "2 37988  74.0635  19.4997 0063404  56.3451 304.3745 14.68888628234309"}}, "geometry": {"type": "Point", "coordinates": [-98.78629648218234, -72.2764408768743]}}, {"type": "Feature", "properties": {"norad_id": 37993, "name": "COSMOS 2251 DEB", "group": "cosmos-2251-debris", "lat": -58.90627816755187, "lon": 132.42235673922175, "alt_km": 689.6949834348779, "timestamp": "2025-12-15T22:44:29.328364+00:00", "meta": {"OBJECT_NAME": "COSMOS 2251 DEB", "OBJECT_ID": "1993-036BQU", "EPOCH": "2025-12-13T18:24:10.533312", "MEAN_MOTION": 14.59930362, "ECCENTRICITY": 0.00219521, "INCLINATION": 74.0211, "RA_OF_ASC_NODE": 164.9521, "ARG_OF_PERICENTER": 253.5703, "MEAN_ANOMALY": 106.305, "EPHEMERIS_TYPE": 0, "CLASSIFICATION_TYPE": "U", "NORAD_CAT_ID": 37993, "ELEMENT_SET_NO": 999, "REV_AT_EPOCH": 65332, "BSTAR": 0.0016210604, "MEAN_MOTION_DOT": 7.772e-05, "MEAN_MOTION_DDOT": 0}, "tle": {"line1": "1 37993U 93036BQU 25347.76678858  .00007772  00000+0  16211-2 0  9993", "line2": "2 37993  74.0211 164.9521 0021952 253.5703 106.3050 14.59930362653326"}}, "geometry": {"type": "Point", "coordinates": [132.42235673922175, -58.90627816755187]}}, {"type": "Feature", "properties": {"norad_id": 37994, "name": "COSMOS 2251 DEB", "group": "cosmos-2251-debris", "lat": 28.528376493783664, "lon": 80.81403361767276, "alt_km": 773.6391791957967, "timestamp": "2025-12-15T22:44:29.328374+00:00", "meta": {"OBJECT_NAME": "COSMOS 2251 DEB", "OBJECT_ID": "1993-036BQV", "EPOCH": "2025-12-14T21:01:48.810432", "MEAN_MOTION": 14.3962818, "ECCENTRICITY": 0.00230092, "INCLINATION": 74.0362, "RA_OF_ASC_NODE": 271.7433, "ARG_OF_PERICENTER": 350.7849, "MEAN_ANOMALY": 9.288, "EPHEMERIS_TYPE": 0, "CLASSIFICATION_TYPE": "U", "NORAD_CAT_ID": 37994, "ELEMENT_SET_NO": 999, "REV_AT_EPOCH": 77095, "BSTAR": 0.00038001309, "MEAN_MOTION_DOT": 1.165e-05, "MEAN_MOTION_DDOT": 0}, "tle": {"line1": "1 37994U 93036BQV 25348.87625938  .00001165  00000+0  38001-3 0  9990", "line2": "2 37994  74.0362 271.7433 0023009 350.7849   9.2880 14.39628180770950"}}, "geometry": {"type": "Point", "coordinates": [80.81403361767276, 28.528376493783664]}}, {"type": "Feature", "properties": {"norad_id": 37996, "name": "COSMOS 2251 DEB", "group": "cosmos-2251-debris", "lat": 74.05616831471745, "lon": -72.62179033093851, "alt_km": 974.2654114686211, "timestamp": "2025-12-15T22:44:29.328384+00:00", "meta": {"OBJECT_NAME": "COSMOS 2251 DEB", "OBJECT_ID": "1993-036BQX", "EPOCH": "2025-11-16T18:35:00.708864", "MEAN_MOTION": 14.09591608, "ECCENTRICITY": 0.02219827, "INCLINATION": 74.0658, "RA_OF_ASC_NODE": 248.8308, "ARG_OF_PERICENTER": 5.4709, "MEAN_ANOMALY": 354.8776, "EPHEMERIS_TYPE": 0, "CLASSIFICATION_TYPE": "U", "NORAD_CAT_ID": 37996, "ELEMENT_SET_NO": 999, "REV_AT_EPOCH": 55769, "BSTAR": 0.0096790999, "MEAN_MOTION_DOT": 0.00021331, "MEAN_MOTION_DDOT": 0}, "tle": {"line1": "1 37996U 93036BQX 25320.77431376  .00021331  00000+0  96791-2 0  9998", "line2": "2 37996  74.0658 248.8308 0221982   5.4709 354.8776 14.09591608557693"}}, "geometry": {"type": "Point", "coordinates": [-72.62179033093851, 74.05616831471745]}}]}